start=new Date('2022-04-16T00:00:00.000Z').valueOf();
sats=[{"EPOCH":"2022-04-15T21:25:10.418880","ARG_OF_PERICENTER":"40.5374","ECCENTRICITY":"0.00021430","APOAPSIS":"548.672","CLASSIFICATION_TYPE":"U","INCLINATION":"53.0560","DECAY_DATE":null,"RCS_SIZE":"LARGE","TIME_SYSTEM":"UTC","REF_FRAME":"TEME","MEAN_MOTION_DOT":"-0.00000868","MEAN_MOTION_DDOT":"0.0000000000000","SITE":"AFETR","PERIOD":"95.592","OBJECT_NAME":"STARLINK-2040","SEMIMAJOR_AXIS":"6925.323","FILE":"3403184","TLE_LINE2":"2 47656  53.0560 323.2959 0002143  40.5374 319.5775 15.06408426 65144","BSTAR":"-0.00003931800000","MEAN_ANOMALY":"319.5775","RA_OF_ASC_NODE":"323.2959","MEAN_ELEMENT_THEORY":"SGP4","COUNTRY_CODE":"US","REV_AT_EPOCH":"6514","PERIAPSIS":"545.704","LAUNCH_DATE":"2021-02-16","EPHEMERIS_TYPE":"0","TLE_LINE1":"1 47656U 21012AN  22105.89248170 -.00000868  00000-0 -39318-4 0  9995","GP_ID":"201311328","OBJECT_TYPE":"PAYLOAD","NORAD_CAT_ID":"47656","MEAN_MOTION":"15.06408426","OBJECT_ID":"2021-012AN","ELEMENT_SET_NO":"999","CENTER_NAME":"EARTH"},{"TLE_LINE1":"1 47657U 21012AP  22105.89799907  .00014060  00000-0  96007-3 0  9999","ELEMENT_SET_NO":"999","CENTER_NAME":"EARTH","OBJECT_ID":"2021-012AP","NORAD_CAT_ID":"47657","MEAN_MOTION":"15.06432288","OBJECT_TYPE":"PAYLOAD","GP_ID":"201341609","REV_AT_EPOCH":"6538","MEAN_ELEMENT_THEORY":"SGP4","COUNTRY_CODE":"US","EPHEMERIS_TYPE":"0","LAUNCH_DATE":"2021-02-16","PERIAPSIS":"546.169","RA_OF_ASC_NODE":"343.2786","TLE_LINE2":"2 47657  53.0554 343.2786 0001365  76.6982 283.4159 15.06432288 65382","FILE":"3403567","MEAN_ANOMALY":"283.4159","BSTAR":"0.00096007000000","OBJECT_NAME":"STARLINK-2041","PERIOD":"95.590","SITE":"AFETR","SEMIMAJOR_AXIS":"6925.250","REF_FRAME":"TEME","TIME_SYSTEM":"UTC","DECAY_DATE":null,"RCS_SIZE":"LARGE","MEAN_MOTION_DDOT":"0.0000000000000","MEAN_MOTION_DOT":"0.00014060","CLASSIFICATION_TYPE":"U","APOAPSIS":"548.060","INCLINATION":"53.0554","EPOCH":"2022-04-15T21:33:07.119648","ECCENTRICITY":"0.00013650","ARG_OF_PERICENTER":"76.6982"},{"EPHEMERIS_TYPE":"0","LAUNCH_DATE":"2021-02-16","PERIAPSIS":"546.201","REV_AT_EPOCH":"6541","MEAN_ELEMENT_THEORY":"SGP4","COUNTRY_CODE":"US","ELEMENT_SET_NO":"999","CENTER_NAME":"EARTH","OBJECT_ID":"2021-012AQ","MEAN_MOTION":"15.06407512","NORAD_CAT_ID":"47658","OBJECT_TYPE":"PAYLOAD","GP_ID":"201342361","TLE_LINE1":"1 47658U 21012AQ  22105.95697687  .00000200  00000-0  32320-4 0  9999","MEAN_ANOMALY":"287.1653","BSTAR":"0.00003232000000","TLE_LINE2":"2 47658  53.0562 343.0066 0001429  72.9493 287.1653 15.06407512 65414","FILE":"3403567","RA_OF_ASC_NODE":"343.0066","MEAN_MOTION_DDOT":"0.0000000000000","MEAN_MOTION_DOT":"0.00000200","REF_FRAME":"TEME","TIME_SYSTEM":"UTC","RCS_SIZE":"LARGE","DECAY_DATE":null,"SEMIMAJOR_AXIS":"6925.326","OBJECT_NAME":"STARLINK-2042","PERIOD":"95.592","SITE":"AFETR","ARG_OF_PERICENTER":"72.9493","ECCENTRICITY":"0.00014290","EPOCH":"2022-04-15T22:58:02.801568","INCLINATION":"53.0562","APOAPSIS":"548.180","CLASSIFICATION_TYPE":"U"},{"MEAN_MOTION_DOT":"-0.00012480","MEAN_MOTION_DDOT":"0.0000000000000","DECAY_DATE":null,"RCS_SIZE":"LARGE","REF_FRAME":"TEME","TIME_SYSTEM":"UTC","SEMIMAJOR_AXIS":"6925.364","SITE":"AFETR","OBJECT_NAME":"STARLINK-2043","PERIOD":"95.592","ARG_OF_PERICENTER":"63.0310","ECCENTRICITY":"0.00015790","EPOCH":"2022-04-15T22:00:00.999936","INCLINATION":"53.0554","CLASSIFICATION_TYPE":"U","APOAPSIS":"548.323","PERIAPSIS":"546.136","LAUNCH_DATE":"2021-02-16","EPHEMERIS_TYPE":"0","REV_AT_EPOCH":"6654","COUNTRY_CODE":"US","MEAN_ELEMENT_THEORY":"SGP4","MEAN_MOTION":"15.06394895","NORAD_CAT_ID":"47659","OBJECT_TYPE":"PAYLOAD","GP_ID":"201311397","ELEMENT_SET_NO":"999","CENTER_NAME":"EARTH","OBJECT_ID":"2021-012AR","TLE_LINE1":"1 47659U 21012AR  22105.91667824 -.00012480  00000-0 -82051-3 0  9996","BSTAR":"-0.00082051000000","MEAN_ANOMALY":"298.3661","FILE":"3403173","TLE_LINE2":"2 47659  53.0554 223.1849 0001579  63.0310 298.3661 15.06394895 66545","RA_OF_ASC_NODE":"223.1849"},{"INCLINATION":"53.0549","APOAPSIS":"548.379","CLASSIFICATION_TYPE":"U","ARG_OF_PERICENTER":"40.3642","ECCENTRICITY":"0.00019360","EPOCH":"2022-04-15T22:00:00.999936","SEMIMAJOR_AXIS":"6925.173","SITE":"AFETR","PERIOD":"95.589","OBJECT_NAME":"STARLINK-2044","MEAN_MOTION_DDOT":"0.0000000000000","MEAN_MOTION_DOT":"-0.00071861","DECAY_DATE":null,"RCS_SIZE":"LARGE","TIME_SYSTEM":"UTC","REF_FRAME":"TEME","RA_OF_ASC_NODE":"213.1799","BSTAR":"-0.00484670000000","MEAN_ANOMALY":"181.1870","FILE":"3403166","TLE_LINE2":"2 47660  53.0549 213.1799 0001936  40.3642 181.1870 15.06457169 66698","GP_ID":"201311374","OBJECT_TYPE":"PAYLOAD","NORAD_CAT_ID":"47660","MEAN_MOTION":"15.06457169","OBJECT_ID":"2021-012AS","ELEMENT_SET_NO":"999","CENTER_NAME":"EARTH","TLE_LINE1":"1 47660U 21012AS  22105.91667824 -.00071861  00000-0 -48467-2 0  9998","PERIAPSIS":"545.698","EPHEMERIS_TYPE":"0","LAUNCH_DATE":"2021-02-16","MEAN_ELEMENT_THEORY":"SGP4","COUNTRY_CODE":"US","REV_AT_EPOCH":"6669"},{"TLE_LINE1":"1 47661U 21012AT  22105.85561866  .00002993  00000-0  21962-3 0  9991","MEAN_MOTION":"15.06417578","NORAD_CAT_ID":"47661","GP_ID":"201311377","OBJECT_TYPE":"PAYLOAD","CENTER_NAME":"EARTH","ELEMENT_SET_NO":"999","OBJECT_ID":"2021-012AT","REV_AT_EPOCH":"6514","COUNTRY_CODE":"US","MEAN_ELEMENT_THEORY":"SGP4","PERIAPSIS":"545.979","LAUNCH_DATE":"2021-02-16","EPHEMERIS_TYPE":"0","RA_OF_ASC_NODE":"323.4587","FILE":"3403166","TLE_LINE2":"2 47661  53.0557 323.4587 0001705  77.4302 282.6878 15.06417578 65140","MEAN_ANOMALY":"282.6878","BSTAR":"0.00021962000000","SITE":"AFETR","OBJECT_NAME":"STARLINK-2051","PERIOD":"95.591","SEMIMAJOR_AXIS":"6925.295","DECAY_DATE":null,"RCS_SIZE":"LARGE","REF_FRAME":"TEME","TIME_SYSTEM":"UTC","MEAN_MOTION_DDOT":"0.0000000000000","MEAN_MOTION_DOT":"0.00002993","CLASSIFICATION_TYPE":"U","APOAPSIS":"548.340","INCLINATION":"53.0557","EPOCH":"2022-04-15T20:32:05.452224","ECCENTRICITY":"0.00017050","ARG_OF_PERICENTER":"77.4302"},{"INCLINATION":"53.0551","CLASSIFICATION_TYPE":"U","APOAPSIS":"548.310","ARG_OF_PERICENTER":"67.4158","ECCENTRICITY":"0.00016000","EPOCH":"2022-04-15T21:39:44.078400","SEMIMAJOR_AXIS":"6925.337","OBJECT_NAME":"STARLINK-2052","PERIOD":"95.592","SITE":"AFETR","MEAN_MOTION_DOT":"0.00001814","MEAN_MOTION_DDOT":"0.0000000000000","REF_FRAME":"TEME","TIME_SYSTEM":"UTC","DECAY_DATE":null,"RCS_SIZE":"LARGE","RA_OF_ASC_NODE":"323.2527","MEAN_ANOMALY":"292.7001","BSTAR":"0.00014063000000","TLE_LINE2":"2 47662  53.0551 323.2527 0001600  67.4158 292.7001 15.06403683 65679","FILE":"3403567","CENTER_NAME":"EARTH","ELEMENT_SET_NO":"999","OBJECT_ID":"2021-012AU","NORAD_CAT_ID":"47662","MEAN_MOTION":"15.06403683","OBJECT_TYPE":"PAYLOAD","GP_ID":"201341862","TLE_LINE1":"1 47662U 21012AU  22105.90259350  .00001814  00000-0  14063-3 0  9995","LAUNCH_DATE":"2021-02-16","EPHEMERIS_TYPE":"0","PERIAPSIS":"546.094","REV_AT_EPOCH":"6567","MEAN_ELEMENT_THEORY":"SGP4","COUNTRY_CODE":"US"},{"MEAN_ANOMALY":"208.8885","BSTAR":"-0.00209250000000","FILE":"3403167","TLE_LINE2":"2 47663  53.0524 243.1910 0001834  47.6743 208.8885 15.06428858 66271","RA_OF_ASC_NODE":"243.1910","PERIAPSIS":"545.855","EPHEMERIS_TYPE":"0","LAUNCH_DATE":"2021-02-16","MEAN_ELEMENT_THEORY":"SGP4","COUNTRY_CODE":"US","REV_AT_EPOCH":"6627","GP_ID":"201311878","OBJECT_TYPE":"PAYLOAD","NORAD_CAT_ID":"47663","MEAN_MOTION":"15.06428858","OBJECT_ID":"2021-012AV","ELEMENT_SET_NO":"999","CENTER_NAME":"EARTH","TLE_LINE1":"1 47663U 21012AV  22105.91667824 -.00031338  00000-0 -20925-2 0  9995","ARG_OF_PERICENTER":"47.6743","ECCENTRICITY":"0.00018340","EPOCH":"2022-04-15T22:00:00.999936","INCLINATION":"53.0524","CLASSIFICATION_TYPE":"U","APOAPSIS":"548.395","MEAN_MOTION_DDOT":"0.0000000000000","MEAN_MOTION_DOT":"-0.00031338","RCS_SIZE":"LARGE","DECAY_DATE":null,"TIME_SYSTEM":"UTC","REF_FRAME":"TEME","SEMIMAJOR_AXIS":"6925.260","SITE":"AFETR","PERIOD":"95.590","OBJECT_NAME":"STARLINK-2053"},{"OBJECT_TYPE":"PAYLOAD","GP_ID":"201341360","MEAN_MOTION":"15.06415107","NORAD_CAT_ID":"47664","OBJECT_ID":"2021-012AW","CENTER_NAME":"EARTH","ELEMENT_SET_NO":"999","TLE_LINE1":"1 47664U 21012AW  22105.90352629  .00003380  00000-0  24561-3 0  9994","PERIAPSIS":"546.128","EPHEMERIS_TYPE":"0","LAUNCH_DATE":"2021-02-16","COUNTRY_CODE":"US","MEAN_ELEMENT_THEORY":"SGP4","REV_AT_EPOCH":"6567","RA_OF_ASC_NODE":"323.2502","MEAN_ANOMALY":"298.9540","BSTAR":"0.00024561000000","FILE":"3403567","TLE_LINE2":"2 47664  53.0547 323.2502 0001500  61.1599 298.9540 15.06415107 65678","SEMIMAJOR_AXIS":"6925.302","SITE":"AFETR","PERIOD":"95.591","OBJECT_NAME":"STARLINK-2054","MEAN_MOTION_DDOT":"0.0000000000000","MEAN_MOTION_DOT":"0.00003380","DECAY_DATE":null,"RCS_SIZE":"LARGE","TIME_SYSTEM":"UTC","REF_FRAME":"TEME","INCLINATION":"53.0547","APOAPSIS":"548.206","CLASSIFICATION_TYPE":"U","ARG_OF_PERICENTER":"61.1599","ECCENTRICITY":"0.00015000","EPOCH":"2022-04-15T21:41:04.671456"},{"APOAPSIS":"548.146","CLASSIFICATION_TYPE":"U","INCLINATION":"53.0548","EPOCH":"2022-04-15T21:05:53.458944","ECCENTRICITY":"0.00014430","ARG_OF_PERICENTER":"98.0043","SITE":"AFETR","PERIOD":"95.591","OBJECT_NAME":"STARLINK-2056","SEMIMAJOR_AXIS":"6925.281","DECAY_DATE":null,"RCS_SIZE":"LARGE","TIME_SYSTEM":"UTC","REF_FRAME":"TEME","MEAN_MOTION_DDOT":"0.0000000000000","MEAN_MOTION_DOT":"0.00002482","RA_OF_ASC_NODE":"318.3500","FILE":"3403167","TLE_LINE2":"2 47665  53.0548 318.3500 0001443  98.0043 262.1110 15.06421957 65218","MEAN_ANOMALY":"262.1110","BSTAR":"0.00018534000000","TLE_LINE1":"1 47665U 21012AX  22105.87909096  .00002482  00000-0  18534-3 0  9992","GP_ID":"201311879","OBJECT_TYPE":"PAYLOAD","NORAD_CAT_ID":"47665","MEAN_MOTION":"15.06421957","OBJECT_ID":"2021-012AX","ELEMENT_SET_NO":"999","CENTER_NAME":"EARTH","COUNTRY_CODE":"US","MEAN_ELEMENT_THEORY":"SGP4","REV_AT_EPOCH":"6521","PERIAPSIS":"546.147","LAUNCH_DATE":"2021-02-16","EPHEMERIS_TYPE":"0"}];
